NSS-9                   
1 33749U 09008A   25145.54697587  .00000079  00000+0  00000+0 0  9995
2 33749   0.2604  83.8495 0002021 328.8834 210.6183  1.00269941 59634
TELSTAR 11N             
1 34111U 09009A   25145.43761059 -.00000242  00000+0  00000+0 0  9997
2 34111   0.0174 359.1319 0002191  54.0541 310.0744  1.00275004 42359
WGS F2 (USA 204)        
1 34713U 09017A   25145.18725178  .00000076  00000+0  00000+0 0  9992
2 34713   0.0132 302.8774 0000337 273.1413 151.8947  1.00272403 41729
SES-7 (PROTOSTAR 2)     
1 34941U 09027A   25145.53786738 -.00000337  00000+0  00000+0 0  9995
2 34941   0.0591  83.6338 0000501 301.0665 160.5481  1.00269401 58748
MEASAT-3A               
1 35362U 09032A   25145.51989105 -.00000103  00000+0  00000+0 0  9991
2 35362   0.0200  10.7040 0003704  45.2756 174.5311  1.00271181  4140
GOES 14                 
1 35491U 09033A   25145.41259450 -.00000059  00000+0  00000+0 0  9997
2 35491   0.6772  88.2484 0001460  54.5078 140.6518  1.00271557  2702
FM-5                    
1 35493U 09034A   25145.43263253 -.00000192  00000+0  00000+0 0  9996
2 35493   0.0163 288.5986 0000640  23.7544   0.5233  1.00269982 42755
TERRESTAR-1             
1 35496U 09035A   25145.41072174 -.00000050  00000+0  00000+0 0  9991
2 35496   4.8855  48.6057 0002918   4.8680 226.5947  1.00271348 58245
ASIASAT 5               
1 35696U 09042A   25145.59439064 -.00000300  00000+0  00000+0 0  9993
2 35696   0.0322  85.1245 0001491 282.7591 190.0313  1.00271623 57823
JCSAT-12 (JCSAT-RA)     
1 35755U 09044A   25145.51718801 -.00000320  00000+0  00000+0 0  9994
2 35755   0.0173 358.2969 0000742 316.7208 246.5785  1.00270234 57727
OPTUS D3                
1 35756U 09044B   25143.45532366 -.00000137  00000+0  00000+0 0  9992
2 35756   0.8906  85.3521 0005106 329.6959 146.2911  1.00269657 57653
NIMIQ 5                 
1 35873U 09050A   25145.64042925 -.00000249  00000+0  00000+0 0  9993
2 35873   0.0446 109.9476 0002563 310.8366 340.5531  1.00271635 57458
AMAZONAS 2              
1 35942U 09054A   25145.45456619 -.00000274  00000+0  00000+0 0  9990
2 35942   0.8109  88.6764 0003249 336.7060 280.7534  1.00272805 57292
COMSATBW-1              
1 35943U 09054B   25145.52891872  .00000032  00000+0  00000+0 0  9994
2 35943   0.0146 286.7269 0001231 129.7867  80.2825  1.00269871 57410
NSS-12                  
1 36032U 09058A   25145.45637674  .00000079  00000+0  00000+0 0  9999
2 36032   0.0947  79.8024 0003405 324.9674  59.7990  1.00271962 57035
THOR 6                  
1 36033U 09058B   25145.28169576 -.00000002  00000+0  00000+0 0  9999
2 36033   0.0281  67.8482 0001518 359.5525 276.2726  1.00271078 57114
INTELSAT 14 (IS-14)     
1 36097U 09064A   25145.53447718 -.00000265  00000+0  00000+0 0  9992
2 36097   0.0103 318.7844 0002100 105.0017 327.0004  1.00271435 56711
EUTELSAT 36B            
1 36101U 09065A   25145.52648608  .00000120  00000+0  00000+0 0  9998
2 36101   0.0567 355.4911 0005583  66.6854  61.1957  1.00269733 56826
INTELSAT 15 (IS-15)     
1 36106U 09067A   25145.53334962 -.00000178  00000+0  00000+0 0  9995
2 36106   0.0224  49.4730 0002054  21.2870  89.7598  1.00270844 37343
WGS F3 (USA 211)        
1 36108U 09068A   25145.39558534 -.00000184  00000+0  00000+0 0  9992
2 36108   0.2855  88.0245 0000606 155.0595 228.5702  1.00266964 42713
DIRECTV 12              
1 36131U 09075A   25145.41879272 -.00000095  00000+0  00000+0 0  9995
2 36131   0.0052  69.7460 0000332  13.2120 208.3260  1.00268554 42662
BEIDOU-2 G1             
1 36287U 10001A   25145.54431453 -.00000274  00000+0  00000+0 0  9996
2 36287   3.3895  60.6622 0003321 302.3511 216.7286  1.00272897 56281
SDO                     
1 36395U 10005A   25145.41635522 -.00000069  00000+0  00000+0 0  9991
2 36395  33.8394  92.2742 0000402  92.6867 106.4173  1.00271089 56177
INTELSAT 16 (IS-16)     
1 36397U 10006A   25145.44222904 -.00000236  00000+0  00000+0 0  9999
2 36397   0.0398  80.5649 0002317  18.0383 227.6789  1.00270324 55761
EWS-G2 (GOES 15)        
1 36411U 10008A   25145.58703074  .00000045  00000+0  00000+0 0  9992
2 36411   0.2721  85.8264 0001604 126.3332 304.1402  1.00266929 55754
ECHOSTAR 14             
1 36499U 10010A   25145.56421012  .00000008  00000+0  00000+0 0  9997
2 36499   0.0159 304.2733 0001762 126.4404 256.8966  1.00269923 42669
SES-1                   
1 36516U 10016A   25145.41879211 -.00000106  00000+0  00000+0 0  9995
2 36516   0.0188 311.7670 0002509 113.3914 227.8600  1.00271494 55141
ASTRA 3B                
1 36581U 10021A   25145.20947509  .00000145  00000+0  00000+0 0  9998
2 36581   0.4659  89.1221 0004241 334.2778 278.5457  1.00271518 54975
COMSATBW-2              
1 36582U 10021B   25145.16211775  .00000096  00000+0  00000+0 0  9998
2 36582   0.0565  98.8659 0001817 326.7516 248.9717  1.00268125 55063
BEIDOU-2 G3             
1 36590U 10024A   25145.59899343 -.00000129  00000+0  00000+0 0  9998
2 36590   3.6001  62.4212 0008558 344.3870 131.8776  1.00269781 54889
BADR-5                  
1 36592U 10025A   25145.57475381  .00000152  00000+0  00000+0 0  9996
2 36592   0.0555 117.4360 0004129 346.0633  12.8026  1.00272222 49331
COMS 1                  
1 36744U 10032A   25145.59679145 -.00000338  00000+0  00000+0 0  9996
2 36744   3.8172  80.2078 0000771 341.8157 164.3782  1.00270957 47201
ARABSAT-5A              
1 36745U 10032B   25145.56919593  .00000161  00000+0  00000+0 0  9991
2 36745   0.0679  50.0373 0005265  23.2362  45.5304  1.00269549 54762
ECHOSTAR 15             
1 36792U 10034A   25145.43752355 -.00000197  00000+0  00000+0 0  9992
2 36792   0.0397 103.8731 0001641 317.6989 257.7737  1.00118218 54432
BEIDOU-2 IGSO-1         
1 36828U 10036A   25145.60216785 -.00000034  00000+0  00000+0 0  9995
2 36828  54.2719 166.4647 0049650 217.6716 183.1803  1.00283501 54211
NILESAT 201             
1 36830U 10037A   25145.37228595 -.00000050  00000+0  00000+0 0  9993
2 36830   0.0046 207.3282 0003471 237.7660 285.1347  1.00270655 54478
RASCOM-QAF 1R           
1 36831U 10037B   25145.16003263  .00000027  00000+0  00000+0 0  9997
2 36831   0.0132  82.7875 0006557 342.2042 238.5100  1.00270808 54415
AEHF-1 (USA 214)        
1 36868U 10039A   25145.01936197  .00000156  00000+0  00000+0 0  9997
2 36868   7.2452  73.0044 0004285 346.4657 220.3695  1.00276283 49767
XM-5                    
1 37185U 10053A   25145.40640748 -.00000014  00000+0  00000+0 0  9997
2 37185   0.0347 281.2562 0002873 280.1602  72.9317  1.00268129 53595
BSAT-3B                 
1 37207U 10056B   25145.64005221 -.00000343  00000+0  00000+0 0  9997
2 37207   0.0566 249.4219 0000933 295.3106  38.9996  1.00271225 48219
BEIDOU-2 G4             
1 37210U 10057A   25145.54813726 -.00000105  00000+0  00000+0 0  9994
2 37210   2.6855  70.4640 0004649 193.3476 336.9051  1.00271550 53408
SKYTERRA 1              
1 37218U 10061A   25145.41901343 -.00000111  00000+0  00000+0 0  9993
2 37218   4.3062  50.5302 0002326   3.3758 238.8518  1.00270980 53305
HYLAS 1                 
1 37237U 10065A   25145.40571007  .00000042  00000+0  00000+0 0  9999
2 37237   4.6582  77.7876 0002188  48.7576 150.5923  0.99644573  2999
INTELSAT 17 (IS-17)     
1 37238U 10065B   25145.58136922  .00000006  00000+0  00000+0 0  9992
2 37238   0.0078 320.2858 0002541 106.4649  91.9557  1.00272122 49365
BEIDOU-2 IGSO-2         
1 37256U 10068A   25144.68569124 -.00000232  00000+0  00000+0 0  9991
2 37256  48.2523 276.6394 0045851 212.1551 105.6100  1.00297017 52890
EUTELSAT KA-SAT 9A      
1 37258U 10069A   25145.37541365  .00000070  00000+0  00000+0 0  9997
2 37258   0.0535 305.6391 0004914 171.1345 270.6009  1.00272075 40111
HISPASAT 30W-5          
1 37264U 10070A   25145.45878097 -.00000208  00000+0  00000+0 0  9994
2 37264   0.0696 103.3624 0004496 347.7867 287.3186  1.00269801 49295
KOREASAT 6              
1 37265U 10070B   25145.51989105 -.00000104  00000+0  00000+0 0  9990
2 37265   0.0436 111.1946 0001673 308.8342 170.3663  1.00271071 52884
BEIDOU-2 IGSO-3         
1 37384U 11013A   25144.99480972 -.00000215  00000+0  00000+0 0  9992
2 37384  61.8536  43.8298 0029941 178.0339 127.5619  1.00271569 51767
INTELSAT 28 (IS-28)     
1 37392U 11016A   25145.43865315 -.00000217  00000+0  00000+0 0  9994
2 37392   0.8033  87.7396 0003916 335.9525 305.8074  1.00270897 49397
YAHSAT 1A               
1 37393U 11016B   25145.52683359  .00000109  00000+0  00000+0 0  9990
2 37393   0.0187 324.8064 0002471 102.7375  57.9676  1.00270355 38520
SBIRS GEO-1 (USA 230)   
1 37481U 11019A   25145.45533417  .00000106  00000+0  00000+0 0  9999
2 37481   3.6951  52.1851 0002345   3.3773  43.4415  1.00272140 51518
TELSTAR 14R             
1 37602U 11021A   25145.45301955 -.00000272  00000+0  00000+0 0  9992
2 37602   0.0152 286.1272 0002962 119.0777 298.1607  1.00270059 51943
GSAT-8                  
1 37605U 11022A   25145.52735487  .00000092  00000+0  00000+0 0  9994
2 37605   1.1286  86.7794 0003271 214.7414 186.7497  1.00272602 49339
ST-2                    
1 37606U 11022B   25145.60203363 -.00000204  00000+0  00000+0 0  9993
2 37606   0.0330  86.7139 0001454 351.2425 110.2262  1.00270546 51397
ZHONGXING-10            
1 37677U 11026A   25145.63989588 -.00000345  00000+0  00000+0 0  9994
2 37677   0.0458  99.1898 0002575  45.0951  80.0013  1.00270720 51115
SES-3                   
1 37748U 11035A   25145.45889604 -.00000093  00000+0  00000+0 0  9991
2 37748   0.3229  86.6502 0002459 317.9277 260.9049  1.00271288 50701
KAZSAT-2                
1 37749U 11035B   25145.46219771 -.00000190  00000+0  00000+0 0  9993
2 37749   0.0407 263.1419 0000065 170.0551  62.9924  1.00273086 49517
BEIDOU-2 IGSO-4         
1 37763U 11038A   25145.53517410  .00000060  00000+0  00000+0 0  9996
2 37763  54.5745 169.1413 0143484 231.0924 130.3000  1.00282034 50763
